[{"OBJECT_NAME":"HAWK-11A","OBJECT_ID":"2024-247F","EPOCH":"2026-03-09T12:17:43.893312","MEAN_MOTION":15.28849427,"ECCENTRICITY":0.00054663,"INCLINATION":44.9941,"RA_OF_ASC_NODE":114.3328,"ARG_OF_PERICENTER":327.3713,"MEAN_ANOMALY":32.6832,"EPHEMERIS_TYPE":0,"CLASSIFICATION_TYPE":"U","NORAD_CAT_ID":62382,"ELEMENT_SET_NO":999,"REV_AT_EPOCH":6774,"BSTAR":0.00034106017,"MEAN_MOTION_DOT":9.457e-5,"MEAN_MOTION_DDOT":0},{"OBJECT_NAME":"STARLINK-35558","OBJECT_ID":"2025-235C","EPOCH":"2026-03-09T17:31:36.985152","MEAN_MOTION":15.30199235,"ECCENTRICITY":0.00010536,"INCLINATION":53.1589,"RA_OF_ASC_NODE":245.3685,"ARG_OF_PERICENTER":102.5501,"MEAN_ANOMALY":257.5617,"EPHEMERIS_TYPE":0,"CLASSIFICATION_TYPE":"U","NORAD_CAT_ID":66060,"ELEMENT_SET_NO":999,"REV_AT_EPOCH":2292,"BSTAR":0.00044392213,"MEAN_MOTION_DOT":0.00012811,"MEAN_MOTION_DDOT":0}]
